[{"OBJECT_NAME":"ICEYE-X4","OBJECT_ID":"2019-038D","EPOCH":"2026-03-09T23:53:58.416000","MEAN_MOTION":15.26985132,"ECCENTRICITY":0.00122769,"INCLINATION":97.8888,"RA_OF_ASC_NODE":96.1923,"ARG_OF_PERICENTER":293.9914,"MEAN_ANOMALY":66.0038,"EPHEMERIS_TYPE":0,"CLASSIFICATION_TYPE":"U","NORAD_CAT_ID":44390,"ELEMENT_SET_NO":999,"REV_AT_EPOCH":36665,"BSTAR":0.00049915294,"MEAN_MOTION_DOT":0.00013179,"MEAN_MOTION_DDOT":0},{"OBJECT_NAME":"STARLINK-31398","OBJECT_ID":"2024-064T","EPOCH":"2026-03-09T00:22:08.327424","MEAN_MOTION":15.27586288,"ECCENTRICITY":0.00012899,"INCLINATION":43.0035,"RA_OF_ASC_NODE":59.8886,"ARG_OF_PERICENTER":195.9154,"MEAN_ANOMALY":164.1658,"EPHEMERIS_TYPE":0,"CLASSIFICATION_TYPE":"U","NORAD_CAT_ID":59415,"ELEMENT_SET_NO":999,"REV_AT_EPOCH":10912,"BSTAR":-1.6845305e-5,"MEAN_MOTION_DOT":-7.26e-6,"MEAN_MOTION_DDOT":0}]
